CCSDS_OMM_VERS = 2.0
CREATION_DATE  = 
ORIGINATOR     = 

OBJECT_NAME    = STARLINK-36622
OBJECT_ID      = 2026-022V
CENTER_NAME    = EARTH
REF_FRAME      = TEME
TIME_SYSTEM    = UTC
MEAN_ELEMENT_THEORY = SGP/SGP4

EPOCH          = 2026-02-21T09:01:54.175008
MEAN_MOTION    = 15.75221011
ECCENTRICITY   = .0001687
INCLINATION    = 97.2840
RA_OF_ASC_NODE = 85.5896
ARG_OF_PERICENTER = 74.8790
MEAN_ANOMALY   = 285.2662

EPHEMERIS_TYPE = 0
CLASSIFICATION_TYPE = U
NORAD_CAT_ID   = 67667
ELEMENT_SET_NO = 999
REV_AT_EPOCH   = 298
BSTAR          = .71027E-3
MEAN_MOTION_DOT = .107297E-2
MEAN_MOTION_DDOT = 0

CCSDS_OMM_VERS = 2.0
CREATION_DATE  = 
ORIGINATOR     = 

OBJECT_NAME    = STARLINK-36625
OBJECT_ID      = 2026-022W
CENTER_NAME    = EARTH
REF_FRAME      = TEME
TIME_SYSTEM    = UTC
MEAN_ELEMENT_THEORY = SGP/SGP4

EPOCH          = 2026-02-21T08:59:52.139328
MEAN_MOTION    = 15.75213513
ECCENTRICITY   = .0001305
INCLINATION    = 97.2840
RA_OF_ASC_NODE = 85.5914
ARG_OF_PERICENTER = 102.9736
MEAN_ANOMALY   = 257.1674

EPHEMERIS_TYPE = 0
CLASSIFICATION_TYPE = U
NORAD_CAT_ID   = 67668
ELEMENT_SET_NO = 999
REV_AT_EPOCH   = 298
BSTAR          = .64976E-3
MEAN_MOTION_DOT = .98005E-3
MEAN_MOTION_DDOT = 0

CCSDS_OMM_VERS = 2.0
CREATION_DATE  = 
ORIGINATOR     = 

OBJECT_NAME    = STARLINK-36639
OBJECT_ID      = 2026-022X
CENTER_NAME    = EARTH
REF_FRAME      = TEME
TIME_SYSTEM    = UTC
MEAN_ELEMENT_THEORY = SGP/SGP4

EPOCH          = 2026-02-21T08:57:19.755648
MEAN_MOTION    = 15.75232173
ECCENTRICITY   = .0001782
INCLINATION    = 97.2840
RA_OF_ASC_NODE = 85.5935
ARG_OF_PERICENTER = 79.0300
MEAN_ANOMALY   = 281.1166

EPHEMERIS_TYPE = 0
CLASSIFICATION_TYPE = U
NORAD_CAT_ID   = 67669
ELEMENT_SET_NO = 999
REV_AT_EPOCH   = 298
BSTAR          = .90597E-3
MEAN_MOTION_DOT = .137451E-2
MEAN_MOTION_DDOT = 0

CCSDS_OMM_VERS = 2.0
CREATION_DATE  = 
ORIGINATOR     = 

OBJECT_NAME    = STARLINK-36596
OBJECT_ID      = 2026-022Y
CENTER_NAME    = EARTH
REF_FRAME      = TEME
TIME_SYSTEM    = UTC
MEAN_ELEMENT_THEORY = SGP/SGP4

EPOCH          = 2026-02-21T08:54:47.078208
MEAN_MOTION    = 15.75246417
ECCENTRICITY   = .0001554
INCLINATION    = 97.2839
RA_OF_ASC_NODE = 85.5955
ARG_OF_PERICENTER = 132.7748
MEAN_ANOMALY   = 227.3649

EPHEMERIS_TYPE = 0
CLASSIFICATION_TYPE = U
NORAD_CAT_ID   = 67670
ELEMENT_SET_NO = 999
REV_AT_EPOCH   = 298
BSTAR          = .1106E-2
MEAN_MOTION_DOT = .168552E-2
MEAN_MOTION_DDOT = 0

CCSDS_OMM_VERS = 2.0
CREATION_DATE  = 
ORIGINATOR     = 

OBJECT_NAME    = STARLINK-36297
OBJECT_ID      = 2026-022Z
CENTER_NAME    = EARTH
REF_FRAME      = TEME
TIME_SYSTEM    = UTC
MEAN_ELEMENT_THEORY = SGP/SGP4

EPOCH          = 2026-02-21T08:51:44.131392
MEAN_MOTION    = 15.75213156
ECCENTRICITY   = .000186
INCLINATION    = 97.2846
RA_OF_ASC_NODE = 85.5987
ARG_OF_PERICENTER = 99.0365
MEAN_ANOMALY   = 261.1111

EPHEMERIS_TYPE = 0
CLASSIFICATION_TYPE = U
NORAD_CAT_ID   = 67671
ELEMENT_SET_NO = 999
REV_AT_EPOCH   = 298
BSTAR          = .10723E-2
MEAN_MOTION_DOT = .163072E-2
MEAN_MOTION_DDOT = 0

CCSDS_OMM_VERS = 2.0
CREATION_DATE  = 
ORIGINATOR     = 

OBJECT_NAME    = STARLINK-36616
OBJECT_ID      = 2026-022AA
CENTER_NAME    = EARTH
REF_FRAME      = TEME
TIME_SYSTEM    = UTC
MEAN_ELEMENT_THEORY = SGP/SGP4

EPOCH          = 2026-02-21T08:53:45.821472
MEAN_MOTION    = 15.75238968
ECCENTRICITY   = .0002038
INCLINATION    = 97.2842
RA_OF_ASC_NODE = 85.5965
ARG_OF_PERICENTER = 146.1117
MEAN_ANOMALY   = 214.0279

EPHEMERIS_TYPE = 0
CLASSIFICATION_TYPE = U
NORAD_CAT_ID   = 67672
ELEMENT_SET_NO = 999
REV_AT_EPOCH   = 298
BSTAR          = .66179E-3
MEAN_MOTION_DOT = .99959E-3
MEAN_MOTION_DDOT = 0

CCSDS_OMM_VERS = 2.0
CREATION_DATE  = 
ORIGINATOR     = 

OBJECT_NAME    = COSMOS 2600
OBJECT_ID      = 2026-023A
CENTER_NAME    = EARTH
REF_FRAME      = TEME
TIME_SYSTEM    = UTC
MEAN_ELEMENT_THEORY = SGP/SGP4

EPOCH          = 2026-02-20T23:07:43.978080
MEAN_MOTION    = 15.83114690
ECCENTRICITY   = .0001233
INCLINATION    = 96.6465
RA_OF_ASC_NODE = 128.1290
ARG_OF_PERICENTER = 50.1611
MEAN_ANOMALY   = 309.9769

EPHEMERIS_TYPE = 0
CLASSIFICATION_TYPE = U
NORAD_CAT_ID   = 67674
ELEMENT_SET_NO = 999
REV_AT_EPOCH   = 240
BSTAR          = .31288E-3
MEAN_MOTION_DOT = .67013E-3
MEAN_MOTION_DDOT = 0

CCSDS_OMM_VERS = 2.0
CREATION_DATE  = 
ORIGINATOR     = 

OBJECT_NAME    = 2026-023B
OBJECT_ID      = 2026-023B
CENTER_NAME    = EARTH
REF_FRAME      = TEME
TIME_SYSTEM    = UTC
MEAN_ELEMENT_THEORY = SGP/SGP4

EPOCH          = 2026-02-21T11:44:29.173920
MEAN_MOTION    = 15.22561524
ECCENTRICITY   = .0018223
INCLINATION    = 96.6382
RA_OF_ASC_NODE = 127.3150
ARG_OF_PERICENTER = 187.9496
MEAN_ANOMALY   = 172.1457

EPHEMERIS_TYPE = 0
CLASSIFICATION_TYPE = U
NORAD_CAT_ID   = 67675
ELEMENT_SET_NO = 999
REV_AT_EPOCH   = 239
BSTAR          = .55028E-3
MEAN_MOTION_DOT = .12782E-3
MEAN_MOTION_DDOT = 0

CCSDS_OMM_VERS = 2.0
CREATION_DATE  = 
ORIGINATOR     = 

OBJECT_NAME    = 2026-023C
OBJECT_ID      = 2026-023C
CENTER_NAME    = EARTH
REF_FRAME      = TEME
TIME_SYSTEM    = UTC
MEAN_ELEMENT_THEORY = SGP/SGP4

EPOCH          = 2026-02-21T11:43:33.062304
MEAN_MOTION    = 15.22641236
ECCENTRICITY   = .0019418
INCLINATION    = 96.6417
RA_OF_ASC_NODE = 127.3314
ARG_OF_PERICENTER = 177.8961
MEAN_ANOMALY   = 182.2363

EPHEMERIS_TYPE = 0
CLASSIFICATION_TYPE = U
NORAD_CAT_ID   = 67676
ELEMENT_SET_NO = 999
REV_AT_EPOCH   = 255
BSTAR          = .61561E-3
MEAN_MOTION_DOT = .14352E-3
MEAN_MOTION_DDOT = 0

CCSDS_OMM_VERS = 2.0
CREATION_DATE  = 
ORIGINATOR     = 

OBJECT_NAME    = 2026-023D
OBJECT_ID      = 2026-023D
CENTER_NAME    = EARTH
REF_FRAME      = TEME
TIME_SYSTEM    = UTC
MEAN_ELEMENT_THEORY = SGP/SGP4

EPOCH          = 2026-02-21T11:45:22.469760
MEAN_MOTION    = 15.22490316
ECCENTRICITY   = .0019571
INCLINATION    = 96.6449
RA_OF_ASC_NODE = 127.3166
ARG_OF_PERICENTER = 182.9372
MEAN_ANOMALY   = 177.1755

EPHEMERIS_TYPE = 0
CLASSIFICATION_TYPE = U
NORAD_CAT_ID   = 67677
ELEMENT_SET_NO = 999
REV_AT_EPOCH   = 238
BSTAR          = .47318E-3
MEAN_MOTION_DOT = .10965E-3
MEAN_MOTION_DDOT = 0

CCSDS_OMM_VERS = 2.0
CREATION_DATE  = 
ORIGINATOR     = 

OBJECT_NAME    = 2026-023E
OBJECT_ID      = 2026-023E
CENTER_NAME    = EARTH
REF_FRAME      = TEME
TIME_SYSTEM    = UTC
MEAN_ELEMENT_THEORY = SGP/SGP4

EPOCH          = 2026-02-21T11:43:57.190368
MEAN_MOTION    = 15.22616861
ECCENTRICITY   = .001938
INCLINATION    = 96.6342
RA_OF_ASC_NODE = 127.3119
ARG_OF_PERICENTER = 182.4020
MEAN_ANOMALY   = 177.7129

EPHEMERIS_TYPE = 0
CLASSIFICATION_TYPE = U
NORAD_CAT_ID   = 67678
ELEMENT_SET_NO = 999
REV_AT_EPOCH   = 238
BSTAR          = .57331E-3
MEAN_MOTION_DOT = .1335E-3
MEAN_MOTION_DDOT = 0

CCSDS_OMM_VERS = 2.0
CREATION_DATE  = 
ORIGINATOR     = 

OBJECT_NAME    = 2026-023F
OBJECT_ID      = 2026-023F
CENTER_NAME    = EARTH
REF_FRAME      = TEME
TIME_SYSTEM    = UTC
MEAN_ELEMENT_THEORY = SGP/SGP4

EPOCH          = 2026-02-21T11:41:53.782656
MEAN_MOTION    = 15.22753748
ECCENTRICITY   = .0021301
INCLINATION    = 96.6350
RA_OF_ASC_NODE = 129.8097
ARG_OF_PERICENTER = 177.1610
MEAN_ANOMALY   = 182.9753

EPHEMERIS_TYPE = 0
CLASSIFICATION_TYPE = U
NORAD_CAT_ID   = 67679
ELEMENT_SET_NO = 999
REV_AT_EPOCH   = 237
BSTAR          = .55659E-3
MEAN_MOTION_DOT = .13025E-3
MEAN_MOTION_DDOT = 0

