STARLINK-36622          
1 67667U 26022V   26052.37632147  .00107297  00000+0  71027-3 0  9997
2 67667  97.2840  85.5896 0001687  74.8790 285.2662 15.75221011  2987
STARLINK-36625          
1 67668U 26022W   26052.37490902  .00098005  00000+0  64976-3 0  9990
2 67668  97.2840  85.5914 0001305 102.9736 257.1674 15.75213513  2988
STARLINK-36639          
1 67669U 26022X   26052.37314532  .00137451  00000+0  90597-3 0  9992
2 67669  97.2840  85.5935 0001782  79.0300 281.1166 15.75232173  2988
STARLINK-36596          
1 67670U 26022Y   26052.37137822  .00168552  00000+0  11060-2 0  9992
2 67670  97.2839  85.5955 0001554 132.7748 227.3649 15.75246417  2984
STARLINK-36297          
1 67671U 26022Z   26052.36926078  .00163072  00000+0  10723-2 0  9998
2 67671  97.2846  85.5987 0001860  99.0365 261.1111 15.75213156  2982
STARLINK-36616          
1 67672U 26022AA  26052.37066923  .00099959  00000+0  66179-3 0  9993
2 67672  97.2842  85.5965 0002038 146.1117 214.0279 15.75238968  2982
COSMOS 2600             
1 67674U 26023A   26051.96370345  .00067013  00000+0  31288-3 0  9995
2 67674  96.6465 128.1290 0001233  50.1611 309.9769 15.83114690  2401
2026-023B               
1 67675U 26023B   26052.48922655  .00012782  00000+0  55028-3 0  9992
2 67675  96.6382 127.3150 0018223 187.9496 172.1457 15.22561524  2390
2026-023C               
1 67676U 26023C   26052.48857711  .00014352  00000+0  61561-3 0  9997
2 67676  96.6417 127.3314 0019418 177.8961 182.2363 15.22641236  2559
2026-023D               
1 67677U 26023D   26052.48984340  .00010965  00000+0  47318-3 0  9997
2 67677  96.6449 127.3166 0019571 182.9372 177.1755 15.22490316  2383
2026-023E               
1 67678U 26023E   26052.48885637  .00013350  00000+0  57331-3 0  9994
2 67678  96.6342 127.3119 0019380 182.4020 177.7129 15.22616861  2383
2026-023F               
1 67679U 26023F   26052.48742804  .00013025  00000+0  55659-3 0  9993
2 67679  96.6350 129.8097 0021301 177.1610 182.9753 15.22753748  2373
